     2.11           N: GPS NAV DATA                         RINEX VERSION / TYPE
teqc  2019Feb25                         20230219 23:01:30UTCPGM / RUN BY / DATE
Linux2.6.32-573.12.1.el6.x86_64|x86_64|gcc|Win64-MinGW64|=+ COMMENT
                                                            END OF HEADER
 8 22  8 11 10  0  0.0-8.000899106264D-05-1.591615728103D-12 0.000000000000D+00
    1.100000000000D+02 1.105937500000D+02 4.266963671284D-09 2.165035978096D+00
    5.895271897316D-06 7.423018920235D-03 1.144222915173D-05 5.153581861496D+03
    3.816000000000D+05-1.601874828339D-07 1.576935895538D-01 1.788139343262D-07
    9.629801388681D-01 1.603750000000D+02 1.659508887492D-01-7.802110957300D-09
   -7.643175675698D-11 1.000000000000D+00 2.222000000000D+03 0.000000000000D+00
    2.000000000000D+00 0.000000000000D+00 5.122274160385D-09 1.100000000000D+02
    3.750600000000D+05
10 22  8 11 10  0  0.0-5.240887403488D-04-1.341504685115D-11 0.000000000000D+00
    5.900000000000D+01-1.435000000000D+02 4.087670202324D-09-2.041983544034D+00
   -7.387250661850D-06 7.790904259309D-03 4.086643457413D-06 5.153686290741D+03
    3.816000000000D+05-1.676380634308D-08 2.272478221908D+00-1.396983861923D-07
    9.746851585434D-01 3.088125000000D+02-2.509368211476D+00-7.944973567930D-09
   -3.307280560527D-10 1.000000000000D+00 2.222000000000D+03 0.000000000000D+00
    2.000000000000D+00 0.000000000000D+00 2.328306436539D-09 5.900000000000D+01
    3.750600000000D+05
16 22  8 11 10  0  0.0-5.199671722949D-04-1.705302565824D-12 0.000000000000D+00
    8.000000000000D+01-2.256250000000D+01 4.484115301295D-09 3.124713551605D+00
   -1.264736056328D-06 1.271750999149D-02 9.587034583092D-06 5.153690206528D+03
    3.816000000000D+05-8.754432201385D-08-7.771139216398D-01-1.844018697739D-07
    9.680834671451D-01 2.006875000000D+02 7.300221585703D-01-7.668533363869D-09
   -5.839528860463D-10 1.000000000000D+00 2.222000000000D+03 0.000000000000D+00
    2.800000000000D+00 0.000000000000D+00-1.024454832077D-08 8.000000000000D+01
    3.750600000000D+05
18 22  8 11 10  0  0.0 8.533662185073D-05-1.205080479849D-11 0.000000000000D+00
    9.400000000000D+01 8.168750000000D+01 4.628406991003D-09 2.950940227762D-01
    3.980472683907D-06 2.688096137717D-03 7.208436727524D-07 5.153724409103D+03
    3.816000000000D+05-5.029141902924D-08 1.246628799688D+00 5.029141902924D-08
    9.719088969810D-01 3.685625000000D+02 3.022359957149D+00-8.471424450818D-09
    5.250218662600D-11 1.000000000000D+00 2.222000000000D+03 0.000000000000D+00
    2.000000000000D+00 0.000000000000D+00-8.381903171539D-09 8.620000000000D+02
    3.750600000000D+05
21 22  8 11 10  0  0.0 1.605786383152D-04-3.410605131648D-13 0.000000000000D+00
    6.100000000000D+01 1.135000000000D+02 4.745554615937D-09 2.246433707015D+00
    6.010755896568D-06 2.428980637342D-02 5.178153514862D-07 5.153723379135D+03
    3.816000000000D+05 4.228204488754D-07 1.145680673056D+00 1.061707735062D-07
    9.604415795498D-01 3.596250000000D+02-9.116579619620D-01-8.261772599383D-09
   -9.714690163420D-11 1.000000000000D+00 2.222000000000D+03 0.000000000000D+00
    2.000000000000D+00 0.000000000000D+00-1.024454832077D-08 6.100000000000D+01
    3.750600000000D+05
23 22  8 11 10  0  0.0-3.649760037661D-05-1.364242052659D-12 0.000000000000D+00
    1.210000000000D+02-1.372500000000D+02 4.301607958723D-09-7.857993423482D-01
   -7.156282663345D-06 2.495365799405D-03 3.894791007042D-06 5.153723005295D+03
    3.816000000000D+05 8.195638656616D-08 2.246723511087D+00-1.881271600723D-07
    9.697592500453D-01 3.150000000000D+02 2.993833452517D+00-8.135338624982D-09
   -4.764484362596D-10 1.000000000000D+00 2.222000000000D+03 0.000000000000D+00
    2.000000000000D+00 0.000000000000D+00-8.381903171539D-09 1.210000000000D+02
    3.750600000000D+05
26 22  8 11  9 59 44.0 2.231118269265D-04 1.932676241267D-12 0.000000000000D+00
    7.000000000000D+00-3.659375000000D+01 5.377366996129D-09-2.322920542827D+00
   -2.158805727959D-06 7.057563867420D-03 7.953494787216D-06 5.153788282394D+03
    3.815840000000D+05-1.676380634308D-08-9.247614230652D-01-1.583248376846D-07
    9.364420061569D-01 2.155625000000D+02 3.832247999711D-01-8.299274156798D-09
   -4.739483250304D-10 1.000000000000D+00 2.222000000000D+03 0.000000000000D+00
    2.000000000000D+00 0.000000000000D+00 6.984919309616D-09 7.000000000000D+00
    3.750600000000D+05
27 22  8 11 10  0  0.0 2.197199501097D-04-1.477928890381D-12 0.000000000000D+00
    6.600000000000D+01 1.145000000000D+02 4.028739120088D-09 2.196728505165D+00
    5.921348929405D-06 1.053177961148D-02 1.140497624874D-05 5.153667682648D+03
    3.816000000000D+05-2.309679985046D-07 1.785706491557D-01-1.322478055954D-07
    9.717585923888D-01 1.645937500000D+02 6.894381734101D-01-7.622817932429D-09
   -1.535778275386D-11 1.000000000000D+00 2.222000000000D+03 0.000000000000D+00
    2.000000000000D+00 0.000000000000D+00 1.396983861923D-09 6.600000000000D+01
    3.750600000000D+05
32 22  8 11 10  0  0.0-2.007912844419D-04-1.057287590811D-11 0.000000000000D+00
    6.400000000000D+01-6.378125000000D+01 3.979451435043D-09 2.894482444755D+00
   -3.224238753319D-06 6.065821275115D-03 1.230649650097D-05 5.153639320374D+03
    3.816000000000D+05 6.891787052155D-08-2.969286186002D+00-8.754432201385D-08
    9.589859468025D-01 1.393750000000D+02-2.285634868861D+00-7.566029580630D-09
    4.675194675841D-10 1.000000000000D+00 2.222000000000D+03 0.000000000000D+00
    2.000000000000D+00 0.000000000000D+00 4.656612873077D-10 6.400000000000D+01
    3.765300000000D+05
 1 22  8 11 10  0  0.0 3.041536547244D-04-7.048583938740D-12 0.000000000000D+00
    6.600000000000D+01 6.893750000000D+01 4.378039708541D-09-5.222653238185D-02
    3.768131136894D-06 1.202950708102D-02 7.580965757370D-07 5.153657506943D+03
    3.816000000000D+05 1.117587089539D-08 1.241412496099D+00 1.266598701477D-07
    9.880714104888D-01 3.763437500000D+02 9.417471395942D-01-8.485353752974D-09
    7.536028051591D-11 1.000000000000D+00 2.222000000000D+03 0.000000000000D+00
    2.000000000000D+00 0.000000000000D+00 5.122274160385D-09 6.600000000000D+01
    3.782400000000D+05
22 22  8 11 10  0  0.0 3.079241141677D-04 6.593836587854D-12 0.000000000000D+00
    7.400000000000D+01-4.943750000000D+01 3.955521687971D-09 2.011596473856D+00
   -2.609565854073D-06 1.343888870906D-02 1.201033592224D-05 5.153733705521D+03
    3.816000000000D+05 1.043081283569D-07-2.878511874877D+00-3.520399332047D-07
    9.621337120224D-01 1.463437500000D+02-1.845037820180D+00-7.551029135300D-09
    5.453798523902D-10 1.000000000000D+00 2.222000000000D+03 0.000000000000D+00
    2.000000000000D+00 0.000000000000D+00-7.916241884232D-09 7.400000000000D+01
    3.789000000000D+05
14 22  8 11 10  0  0.0-1.096427440643D-04 1.364242052659D-12 0.000000000000D+00
    3.000000000000D+01-1.884375000000D+01 4.943420339742D-09-1.430129190187D+00
   -1.138076186180D-06 2.198504051194D-03 8.594244718552D-06 5.153652570724D+03
    3.816000000000D+05 8.381903171539D-08-8.296938526050D-01 7.450580596924D-09
    9.515659824169D-01 2.081562500000D+02-3.056338470731D+00-8.087837066739D-09
   -5.610947817480D-10 1.000000000000D+00 2.222000000000D+03 0.000000000000D+00
    2.000000000000D+00 0.000000000000D+00-7.916241884232D-09 5.420000000000D+02
    3.794100000000D+05
 1 22  8 11 12  0  0.0 3.041028976440D-04-7.048583938740D-12 0.000000000000D+00
    7.100000000000D+01 7.862500000000D+01 4.332680436647D-09 9.978997286320D-01
    4.230067133904D-06 1.203169324435D-02 1.635402441025D-06 5.153661880493D+03
    3.888000000000D+05-7.823109626770D-08 1.241351331494D+00 2.048909664154D-07
    9.880719663977D-01 3.624062500000D+02 9.418087430745D-01-8.459995370913D-09
    1.142904729190D-10 1.000000000000D+00 2.222000000000D+03 0.000000000000D+00
    2.000000000000D+00 0.000000000000D+00 5.122274160385D-09 7.100000000000D+01
    3.816300000000D+05
22 22  8 11 12  0  0.0 3.079716116190D-04 6.593836587854D-12 0.000000000000D+00
    7.800000000000D+01-5.987500000000D+01 3.935163750413D-09 3.061816910221D+00
   -2.942979335785D-06 1.344002888072D-02 1.222454011440D-05 5.153730840683D+03
    3.888000000000D+05 1.434236764908D-07-2.878564538464D+00-7.450580596924D-08
    9.621380042241D-01 1.409062500000D+02-1.845117522882D+00-7.351020681057D-09
    4.607334791462D-10 1.000000000000D+00 2.222000000000D+03 0.000000000000D+00
    2.000000000000D+00 0.000000000000D+00-7.916241884232D-09 7.800000000000D+01
    3.816300000000D+05
 8 22  8 11 12  0  0.0-8.002063259482D-05-1.591615728103D-12 0.000000000000D+00
    1.110000000000D+02 1.106562500000D+02 4.200531922294D-09-3.067882055933D+00
    5.841255187988D-06 7.424508803524D-03 1.214444637299D-05 5.153579156876D+03
    3.888000000000D+05-8.195638656616D-08 1.576377031574D-01-3.166496753693D-08
    9.629805850581D-01 1.481562500000D+02 1.659191478156D-01-7.628889520106D-09
   -1.571493976615D-11 1.000000000000D+00 2.222000000000D+03 0.000000000000D+00
    2.000000000000D+00 0.000000000000D+00 5.122274160385D-09 1.110000000000D+02
    3.816300000000D+05
10 22  8 11 12  0  0.0-5.241851322353D-04-1.341504685115D-11 0.000000000000D+00
    6.100000000000D+01-1.488125000000D+02 4.268749353997D-09-9.917423839711D-01
   -7.880851626396D-06 7.791326264851D-03 3.879889845848D-06 5.153687360764D+03
    3.888000000000D+05 2.775341272354D-07 2.272421748881D+00 9.126961231232D-08
    9.746811764804D-01 3.138125000000D+02-2.509439361959D+00-8.196412437655D-09
   -5.575232497890D-10 1.000000000000D+00 2.222000000000D+03 0.000000000000D+00
    2.000000000000D+00 0.000000000000D+00 2.328306436539D-09 6.100000000000D+01
    3.816300000000D+05
